[Satellite]
VERSION=1.1
NAME=FLOCK 3P-27
NICKNAME=FLOCK 3P-27
TLE1=1 41963U 17008R   18020.91172571  .00002762  00000-0  11744-3 0  9990
TLE2=2 41963  97.4688  86.4503 0010064 141.1080 219.0883 15.23843199 51517
